{
  "norad_id": 52503,
  "name": "STARLINK-3861",
  "history": [
    {
      "epoch": "2026-03-28T22:00:23.266944Z",
      "apogee_km": 540.7937239170733,
      "perigee_km": 538.700787214394,
      "latitude_deg": 2.0076938765922524e-05,
      "longitude_deg": 156.26536007162753,
      "height_km": 540.7404396095075,
      "semi_major_axis_km": 6917.884255565734,
      "eccentricity": 0.00015127,
      "inclination_deg": 53.218,
      "raan_deg": 312.6928,
      "arg_perigee_deg": 95.3528,
      "mean_anomaly_deg": 264.7637,
      "mean_motion_rev_day": 15.08838735
    },
    {
      "epoch": "2026-03-29T01:11:09.478464Z",
      "apogee_km": 540.7847723628583,
      "perigee_km": 538.7011069250384,
      "latitude_deg": 6.57482230138192e-05,
      "longitude_deg": 107.84746846482022,
      "height_km": 540.7216385865252,
      "semi_major_axis_km": 6917.879939643948,
      "eccentricity": 0.0001506,
      "inclination_deg": 53.2179,
      "raan_deg": 312.098,
      "arg_perigee_deg": 94.5776,
      "mean_anomaly_deg": 265.5389,
      "mean_motion_rev_day": 15.08840147
    },
    {
      "epoch": "2026-03-29T23:26:33.814464Z",
      "apogee_km": 540.8005116461536,
      "perigee_km": 538.7088179223883,
      "latitude_deg": 8.125547859877891e-05,
      "longitude_deg": 128.91912781028006,
      "height_km": 540.7224954752403,
      "semi_major_axis_km": 6917.891664784271,
      "eccentricity": 0.00015118,
      "inclination_deg": 53.2187,
      "raan_deg": 307.9351,
      "arg_perigee_deg": 93.959,
      "mean_anomaly_deg": 266.1576,
      "mean_motion_rev_day": 15.08836311
    },
    {
      "epoch": "2026-03-30T07:23:29.343264Z",
      "apogee_km": 540.7967489585344,
      "perigee_km": 538.6946811167436,
      "latitude_deg": 7.652114695138802e-05,
      "longitude_deg": 7.874510766308205,
      "height_km": 540.6932827860996,
      "semi_major_axis_km": 6917.882715037639,
      "eccentricity": 0.00015193,
      "inclination_deg": 53.2189,
      "raan_deg": 306.4483,
      "arg_perigee_deg": 92.8323,
      "mean_anomaly_deg": 267.2844,
      "mean_motion_rev_day": 15.08839239
    },
    {
      "epoch": "2026-03-30T20:06:34.721568Z",
      "apogee_km": 540.8253109811922,
      "perigee_km": 538.6836701335451,
      "latitude_deg": 3.9074232093751375e-05,
      "longitude_deg": 174.2008576400106,
      "height_km": 540.6627840424858,
      "semi_major_axis_km": 6917.891490557368,
      "eccentricity": 0.00015479,
      "inclination_deg": 53.2188,
      "raan_deg": 304.0694,
      "arg_perigee_deg": 90.68,
      "mean_anomaly_deg": 269.437,
      "mean_motion_rev_day": 15.08836368
    },
    {
      "epoch": "2026-03-31T07:14:16.496448Z",
      "apogee_km": 540.8061112978985,
      "perigee_km": 538.67402158602,
      "latitude_deg": -4.0396519578808666e-05,
      "longitude_deg": 4.737915323252454,
      "height_km": 540.5825683307029,
      "semi_major_axis_km": 6917.877066441959,
      "eccentricity": 0.0001541,
      "inclination_deg": 53.2187,
      "raan_deg": 301.9876,
      "arg_perigee_deg": 87.1449,
      "mean_anomaly_deg": 272.9719,
      "mean_motion_rev_day": 15.08841087
    },
    {
      "epoch": "2026-04-01T19:48:08.582976Z",
      "apogee_km": 540.7056031850334,
      "perigee_km": 538.7838156461567,
      "latitude_deg": -1.4312916442626903e-05,
      "longitude_deg": 167.92956015152149,
      "height_km": 540.605306606741,
      "semi_major_axis_km": 6917.881709415595,
      "eccentricity": 0.0001389,
      "inclination_deg": 53.2169,
      "raan_deg": 295.1479,
      "arg_perigee_deg": 87.9114,
      "mean_anomaly_deg": 272.2037,
      "mean_motion_rev_day": 15.08839568
    },
    {
      "epoch": "2026-04-02T19:38:55.710240Z",
      "apogee_km": 540.7310229369914,
      "perigee_km": 538.7566597448722,
      "latitude_deg": -4.584050696956515e-05,
      "longitude_deg": 164.79323605377974,
      "height_km": 540.6082959576112,
      "semi_major_axis_km": 6917.8808413409315,
      "eccentricity": 0.0001427,
      "inclination_deg": 53.2178,
      "raan_deg": 290.6873,
      "arg_perigee_deg": 88.1883,
      "mean_anomaly_deg": 271.9272,
      "mean_motion_rev_day": 15.08839852
    },
    {
      "epoch": "2026-04-02T22:49:41.892384Z",
      "apogee_km": 540.7354158953158,
      "perigee_km": 538.7412691490799,
      "latitude_deg": 5.735158688330352e-05,
      "longitude_deg": 116.37531004955612,
      "height_km": 540.626013926865,
      "semi_major_axis_km": 6917.875342522198,
      "eccentricity": 0.00014413,
      "inclination_deg": 53.2176,
      "raan_deg": 290.0923,
      "arg_perigee_deg": 89.544,
      "mean_anomaly_deg": 270.5718,
      "mean_motion_rev_day": 15.08841651
    },
    {
      "epoch": "2026-04-03T19:29:42.991296Z",
      "apogee_km": 540.775335569193,
      "perigee_km": 538.7290239498197,
      "latitude_deg": 5.075048944980848e-05,
      "longitude_deg": 161.655463936737,
      "height_km": 540.7048130980029,
      "semi_major_axis_km": 6917.889179759506,
      "eccentricity": 0.0001479,
      "inclination_deg": 53.218,
      "raan_deg": 286.2258,
      "arg_perigee_deg": 93.1956,
      "mean_anomaly_deg": 266.9206,
      "mean_motion_rev_day": 15.08837124
    },
    {
      "epoch": "2026-04-03T22:40:29.305632Z",
      "apogee_km": 540.7750338476744,
      "perigee_km": 538.7310740523344,
      "latitude_deg": 5.5041175594356205e-05,
      "longitude_deg": 113.23741198760588,
      "height_km": 540.6863915317948,
      "semi_major_axis_km": 6917.890053950005,
      "eccentricity": 0.00014773,
      "inclination_deg": 53.2179,
      "raan_deg": 285.6313,
      "arg_perigee_deg": 92.1169,
      "mean_anomaly_deg": 267.9993,
      "mean_motion_rev_day": 15.08836838
    },
    {
      "epoch": "2026-04-05T12:49:43.315968Z",
      "apogee_km": 541.4509475960149,
      "perigee_km": 537.9961680334427,
      "latitude_deg": -1.3749017936938383e-05,
      "longitude_deg": -107.77374212695396,
      "height_km": 540.5749829673553,
      "semi_major_axis_km": 6917.860557814729,
      "eccentricity": 0.0002497,
      "inclination_deg": 53.2174,
      "raan_deg": 278.4955,
      "arg_perigee_deg": 88.5861,
      "mean_anomaly_deg": 271.5417,
      "mean_motion_rev_day": 15.08846488
    },
    {
      "epoch": "2026-04-05T19:11:17.546496Z",
      "apogee_km": 540.6396542720686,
      "perigee_km": 538.9516787014472,
      "latitude_deg": -1.647732157328901e-05,
      "longitude_deg": 155.3841524368245,
      "height_km": 541.0573719909207,
      "semi_major_axis_km": 6917.932666486758,
      "eccentricity": 0.000122,
      "inclination_deg": 53.2168,
      "raan_deg": 277.3072,
      "arg_perigee_deg": 115.6785,
      "mean_anomaly_deg": 244.4333,
      "mean_motion_rev_day": 15.08822897
    },
    {
      "epoch": "2026-04-05T22:22:03.778752Z",
      "apogee_km": 540.6841362219457,
      "perigee_km": 538.9030458119823,
      "latitude_deg": 2.363982210614764e-05,
      "longitude_deg": 106.96436983426494,
      "height_km": 541.0418273070527,
      "semi_major_axis_km": 6917.930591016964,
      "eccentricity": 0.00012873,
      "inclination_deg": 53.218,
      "raan_deg": 276.7106,
      "arg_perigee_deg": 113.2991,
      "mean_anomaly_deg": 246.8137,
      "mean_motion_rev_day": 15.08823576
    },
    {
      "epoch": "2026-04-07T04:34:23.500128Z",
      "apogee_km": 541.0871038280357,
      "perigee_km": 538.422470269501,
      "latitude_deg": -1.9848301361495095e-05,
      "longitude_deg": 6.991567029448512,
      "height_km": 541.7324875572677,
      "semi_major_axis_km": 6917.8917870487685,
      "eccentricity": 0.00019259,
      "inclination_deg": 53.2173,
      "raan_deg": 271.0605,
      "arg_perigee_deg": 144.2814,
      "mean_anomaly_deg": 215.8307,
      "mean_motion_rev_day": 15.08836271
    },
    {
      "epoch": "2026-04-07T20:28:15.812256Z",
      "apogee_km": 540.5954683301406,
      "perigee_km": 539.0237108649844,
      "latitude_deg": -1.8053180312390464e-05,
      "longitude_deg": 124.8964971273874,
      "height_km": 540.8462706076186,
      "semi_major_axis_km": 6917.946589597563,
      "eccentricity": 0.0001136,
      "inclination_deg": 53.2169,
      "raan_deg": 268.0863,
      "arg_perigee_deg": 100.3139,
      "mean_anomaly_deg": 259.7981,
      "mean_motion_rev_day": 15.08818342
    },
    {
      "epoch": "2026-04-08T10:46:44.430240Z",
      "apogee_km": 540.5667709633835,
      "perigee_km": 539.0247637495404,
      "latitude_deg": -3.087196942961453e-05,
      "longitude_deg": -92.98626242549237,
      "height_km": 540.8432442498572,
      "semi_major_axis_km": 6917.932767356462,
      "eccentricity": 0.00011145,
      "inclination_deg": 53.2171,
      "raan_deg": 265.4104,
      "arg_perigee_deg": 101.3278,
      "mean_anomaly_deg": 258.7839,
      "mean_motion_rev_day": 15.08822864
    },
    {
      "epoch": "2026-04-09T20:09:50.160096Z",
      "apogee_km": 540.4749525068437,
      "perigee_km": 539.0152793803791,
      "latitude_deg": 5.578081749614007e-05,
      "longitude_deg": 118.62425330959718,
      "height_km": 540.7646709573754,
      "semi_major_axis_km": 6917.882115943611,
      "eccentricity": 0.0001055,
      "inclination_deg": 53.2169,
      "raan_deg": 259.1658,
      "arg_perigee_deg": 99.7403,
      "mean_anomaly_deg": 260.3709,
      "mean_motion_rev_day": 15.08839435
    },
    {
      "epoch": "2026-04-10T04:06:45.678528Z",
      "apogee_km": 540.4593775661097,
      "perigee_km": 539.0124352690036,
      "latitude_deg": 3.1041465565088275e-05,
      "longitude_deg": -2.4200365320713457,
      "height_km": 540.7416234416794,
      "semi_major_axis_km": 6917.872906417557,
      "eccentricity": 0.00010458,
      "inclination_deg": 53.2172,
      "raan_deg": 257.6793,
      "arg_perigee_deg": 98.7128,
      "mean_anomaly_deg": 261.3983,
      "mean_motion_rev_day": 15.08842448
    }
  ]
}